*******************************************************************************
Minimum rise and set values

Date_(ZONE)_HR:MN     Azi_(r-appr)_Elev   Illu% Ang-diam
*********************************************************
$$SOE
 2016-Jan-26 03:21  t  179.3079  58.5860  94.828 1835.102
 2016-Jan-26 10:02 *s  280.6018  -0.2250  93.803 1805.158
 2016-Jan-26 21:35  r   81.7518  -0.1296  90.718 1797.995
 2016-Jan-27 04:06  t  179.3788  54.8645  89.491 1818.181
 2016-Jan-27 10:34 *s  275.8233  -0.3025  88.191 1790.549
 2016-Jan-27 22:32  r   86.7524  -0.1642  84.126 1784.746
 2016-Jan-28 04:49  t  179.2430  50.9764  82.680 1804.538
 2016-Jan-28 11:04 *s  270.8348  -0.3130  81.202 1779.524
 2016-Jan-28 23:29  r   91.9598  -0.0545  76.284 1775.767
 2016-Jan-29 05:32  t  179.4287  47.0788  74.704 1795.294
 2016-Jan-29 11:33 *s  265.8089  -0.2535  73.132 1773.067
 2016-Jan-30 00:24  r   96.8238  -0.1639  67.514 1771.793
 2016-Jan-30 06:14  t  179.2943  43.3094  65.863 1791.364
 2016-Jan-30 12:03 *s  261.0546  -0.2810  64.255 1771.852
 2016-Jan-31 01:20  r  101.5948  -0.0994  58.090 1773.711
 2016-Jan-31 06:58  t  179.6197  39.7943  56.428 1793.377
 2016-Jan-31 12:34 *s  256.5658  -0.2405  54.837 1776.469
 2016-Feb-01 02:16  r  105.9002  -0.0617  48.300 1781.740
 2016-Feb-01 07:42 Nt  179.5321  36.6639  46.681 1801.641
 2016-Feb-01 13:08 *s  252.6511  -0.2748  45.135 1787.023
 2016-Feb-02 03:12  r  109.5392  -0.0629  38.441 1795.823
 2016-Feb-02 08:29 Ct  179.7810  34.0565  36.901 1816.105
 2016-Feb-02 13:45 *s  249.3301  -0.2190  35.436 1803.412
 2016-Feb-03 04:08  r  112.3338  -0.0659  28.840 1815.474
 2016-Feb-03 09:18 *t  179.9431  32.1278  27.419 1836.258
 2016-Feb-03 14:27 *s  246.9658  -0.2063  26.064 1824.926
 2016-Feb-04 05:03  r  113.9892  -0.1210  19.886 1839.613
 2016-Feb-04 10:09 *t  179.9961  31.0417  18.625 1861.069
 2016-Feb-04 15:15 *s  245.8128  -0.2459  17.413 1850.388
 2016-Feb-05 05:57  r  114.4284  -0.0952  12.026 1866.720
 2016-Feb-05 11:03 *t  180.2760  30.9499  10.974 1888.953
 2016-Feb-05 16:09 *s  246.0172  -0.2712   9.961 1878.072
 2016-Feb-06 06:48  r  113.3424  -0.1258   5.770 1894.534
 2016-Feb-06 11:58 *t  180.4039  31.9608   4.988 1917.707
 2016-Feb-06 17:09 *s  247.7496  -0.3160   4.248 1905.650
 2016-Feb-07 07:36 Nr  110.8168  -0.1092   1.625 1920.631
 2016-Feb-07 12:54 *t  180.6011  34.0986   1.194 1944.761
 2016-Feb-07 18:13 *s  250.8429  -0.2371   0.826 1930.561
 2016-Feb-08 08:20 Cr  106.8550  -0.1592   0.038 1942.407
 2016-Feb-08 13:50 *t  180.8159  37.2775   0.046 1967.471
 2016-Feb-08 19:21 Cs  255.3523  -0.2438   0.150 1950.134
 2016-Feb-09 09:01 *r  101.8184  -0.1846   1.291 1957.864
 2016-Feb-09 14:45 *t  180.9072  41.2999   1.822 1983.619
 2016-Feb-09 20:31  s  260.8853  -0.2697   2.478 1962.475
 2016-Feb-10 09:40 *r   96.0927  -0.1523   5.434 1965.803
 2016-Feb-10 15:40 *t  181.2565  45.8803   6.537 1991.906
 2016-Feb-10 21:42  s  267.0697  -0.3452   7.773 1966.696
 2016-Feb-11 10:18 *r   90.0654  -0.0682  12.245 1966.060
 2016-Feb-11 16:33 *t  181.1123  50.6869  13.908 1992.169
 2016-Feb-11 22:52  s  273.2820  -0.2867  15.686 1963.270
 2016-Feb-12 10:55 *r   83.9562  -0.1137  21.252 1959.351
 2016-Feb-12 17:26 *t  181.0131  55.3780  23.409 1985.330
 2016-Feb-13 00:02  s  279.3412  -0.3259  25.635 1953.351
 2016-Feb-13 11:33 *r   78.2651  -0.1627  31.830 1947.291
 2016-Feb-13 18:20 *t  181.2677  59.6361  34.358 1973.000
 2016-Feb-14 01:10  s  284.6268  -0.2435  36.880 1938.947
 2016-Feb-14 12:14 *r   73.4677  -0.0869  43.285 1931.722
 2016-Feb-14 19:13 Ct  180.8000  63.1902  46.002 1957.053
 2016-Feb-15 02:17  s  289.0696  -0.2975  48.672 1921.732
 2016-Feb-15 12:57 *r   69.5625  -0.1804  54.910 1914.086
 2016-Feb-15 20:07 At  180.5362  65.8243  57.642 1939.140
 2016-Feb-16 03:21  s  292.2383  -0.3418  60.289 1903.373
 2016-Feb-16 13:45 *r   67.1492  -0.1011  66.090 1895.849
 2016-Feb-16 21:02  t  180.7370  67.3957  68.649 1920.513
 2016-Feb-17 04:20  s  293.8172  -0.2579  71.101 1885.025
 2016-Feb-17 14:36 *r   66.0470  -0.1557  76.254 1877.643
 2016-Feb-17 21:56  t  180.5692  67.8457  78.492 1901.970
 2016-Feb-18 05:15  s  294.0515  -0.3195  80.618 1867.082
 2016-Feb-18 15:31 *r   66.5096  -0.1356  84.960 1860.028
 2016-Feb-18 22:48  t  179.8352  67.2008  86.758 1883.906
 2016-Feb-19 06:04  s  292.7769  -0.3098  88.450 1849.965
 2016-Feb-19 16:28 *r   68.2765  -0.1835  91.850 1843.109
 2016-Feb-19 23:40  t  180.1195  65.5610  93.153 1866.442
 2016-Feb-20 06:48 As  290.3124  -0.3498  94.345 1833.676
 2016-Feb-20 17:27 *r   71.3273  -0.1308  96.698 1827.082
 2016-Feb-21 00:29  t  179.8543  63.0890  97.484 1849.708
 2016-Feb-21 07:27 Ns  286.8110  -0.3492  98.159 1818.360
 2016-Feb-21 18:26 *r   75.2524  -0.1098  99.382 1812.024
 2016-Feb-22 01:16  t  179.6750  59.9736  99.672 1833.874
 2016-Feb-22 08:02 Cs  282.5559  -0.3196  99.855 1804.202
 2016-Feb-22 19:24 Cr   79.7335  -0.1647  99.898 1798.216
 2016-Feb-23 02:01  t  179.4782  56.4128  99.738 1819.305
 2016-Feb-23 08:34 *s  277.8016  -0.2606  99.483 1791.566
 2016-Feb-23 20:22 Ar   84.7256  -0.0964  98.333 1786.257
 2016-Feb-24 02:45  t  179.5145  52.5951  97.785 1806.555
 2016-Feb-24 09:05 *s  272.9302  -0.3296  97.164 1780.893
 2016-Feb-24 21:19  r   89.8492  -0.0511  94.845 1776.729
 2016-Feb-25 03:28  t  179.5377  48.6934  93.979 1796.361
 2016-Feb-25 09:34 *s  267.8380  -0.2262  93.071 1773.059
 2016-Feb-25 22:15  r   94.8799  -0.0570  89.642 1770.393
 2016-Feb-26 04:10  t  179.3511  44.8628  88.528 1789.556
 2016-Feb-26 10:04 *s  263.0204  -0.2746  87.402 1768.620
 2016-Feb-26 23:10  r   99.6006  -0.1516  82.957 1768.035
 2016-Feb-27 04:53  t  179.4487  41.2426  81.657 1786.985
 2016-Feb-27 10:35 *s  258.4977  -0.3321  80.375 1768.429
 2016-Feb-28 00:06  r  104.1228  -0.0675  75.023 1770.569
 2016-Feb-28 05:37  t  179.6021  37.9654  73.602 1789.442
 2016-Feb-28 11:07 *s  254.2847  -0.2566  72.219 1773.246
 2016-Feb-29 01:01  r  107.9410  -0.1181  66.099 1778.421
 2016-Feb-29 06:22  t  179.6506  35.1626  64.603 1797.558
 2016-Feb-29 11:42 *s  250.7095  -0.2042  63.155 1783.504
 2016-Mar-01 01:56  r  111.0437  -0.1365  56.442 1792.059
 2016-Mar-01 07:09 Nt  179.7678  32.9685  54.911 1811.726
 2016-Mar-01 12:22 *s  248.1151  -0.3151  53.419 1799.398
 2016-Mar-02 02:51  r  113.2879  -0.0697  46.333 1811.535
 2016-Mar-02 07:58 Ct  179.8756  31.5229  44.806 1831.976
 2016-Mar-02 13:06 *s  246.4060  -0.3061  43.298 1820.976
 2016-Mar-03 03:44  r  114.2567  -0.1094  36.120 1836.236
 2016-Mar-03 08:50 *t  180.2348  30.9635  34.619 1857.860
 2016-Mar-03 13:55 *s  245.8287  -0.2206  33.130 1847.592
 2016-Mar-04 04:35  r  113.8965  -0.1477  26.205 1865.136
 2016-Mar-04 09:43 *t  180.3680  31.4107  24.774 1888.230
 2016-Mar-04 14:51 *s  246.8152  -0.2969  23.337 1877.831
 2016-Mar-05 05:24  r  112.2104  -0.0920  17.083 1896.500
 2016-Mar-05 10:38 *t  180.6746  32.9383  15.783 1921.208
 2016-Mar-05 15:52 *s  249.1824  -0.2976  14.477 1909.723
 2016-Mar-06 06:09  r  108.9540  -0.1794   9.347 1927.617
 2016-Mar-06 11:33 *t  180.7595  35.5470   8.265 1954.056
 2016-Mar-06 16:58 *s  253.0197  -0.3469   7.195 1940.344
 2016-Mar-07 06:52 Ar  104.5609  -0.1407   3.612 1955.684
 2016-Mar-07 12:29 *t  181.0536  39.1360   2.872 1983.496
 2016-Mar-07 18:07 *s  258.0121  -0.3321   2.184 1966.424
 2016-Mar-08 07:32 Cr   99.0593  -0.2033   0.468 1977.405
 2016-Mar-08 13:24 *t  181.0409  43.4972   0.207 2006.096
 2016-Mar-08 19:18 *s  263.8726  -0.2871   0.047 1984.748
 2016-Mar-09 08:11 *r   92.9857  -0.1978   0.328 1990.358
 2016-Mar-09 14:19 *t  181.0261  48.3248   0.670 2019.114
 2016-Mar-09 20:30 As  270.1891  -0.2242   1.146 1993.013
 2016-Mar-10 08:50 *r   86.7553  -0.1303   3.331 1993.135
 2016-Mar-10 15:15 *t  181.3632  53.2498   4.344 2021.150
 2016-Mar-10 21:43  s  276.6287  -0.2830   5.493 1990.362
 2016-Mar-11 09:29 *r   80.6419  -0.1757   9.281 1985.727
 2016-Mar-11 16:10 *t  181.1838  57.8885  10.947 2012.539
 2016-Mar-11 22:55  s  282.5395  -0.2999  12.719 1977.883
 2016-Mar-12 10:10 *r   75.2114  -0.1959  17.682 1969.777
 2016-Mar-12 17:05 *t  180.7590  61.8878  19.893 1995.166
 2016-Mar-13 00:05  s  287.4999  -0.2905  22.164 1957.878
 2016-Mar-13 10:54 *r   70.8478  -0.1865  27.850 1947.740
 2016-Mar-13 18:01 *t  180.6608  64.9686  30.433 1971.799
 2016-Mar-14 01:12  s  291.2116  -0.3017  33.029 1933.233
 2016-Mar-14 11:42 *r   67.8959  -0.0994  39.033 1922.370
 2016-Mar-14 18:57 *t  180.6487  66.9534  41.780 1945.387
 2016-Mar-15 02:14  s  293.3547  -0.2432  44.506 1906.838
 2016-Mar-15 12:33 *r   66.3488  -0.0997  50.503 1896.034
 2016-Mar-15 19:52 Ct  180.5019  67.7737  53.218 1918.455
 2016-Mar-16 03:11  s  294.0250  -0.2628  55.900 1880.804
 2016-Mar-16 13:27 *r   66.2988  -0.1263  61.634 1870.655
 2016-Mar-16 20:45 At  180.0106  67.4619  64.152 1892.814
 2016-Mar-17 04:02  s  293.2164  -0.2836  66.638 1856.679
 2016-Mar-17 14:23 *r   67.6210  -0.1980  71.915 1847.439
 2016-Mar-17 21:37  t  180.1099  66.1256  74.124 1869.509
 2016-Mar-18 04:47  s  291.0840  -0.2754  76.288 1835.278
 2016-Mar-18 15:21 *r   70.2764  -0.1671  80.950 1827.094
 2016-Mar-18 22:26  t  179.7690  63.9244  82.768 1849.038
 2016-Mar-19 05:27  s  287.9168  -0.2777  84.535 1816.853
 2016-Mar-19 16:19 *r   73.8468  -0.1846  88.433 1809.729
 2016-Mar-19 23:13  t  179.5671  61.0374  89.825 1831.465
 2016-Mar-20 06:03 As  283.9745  -0.2940  91.154 1801.374
 2016-Mar-20 17:17 *r   78.1725  -0.1591  94.151 1795.327
 2016-Mar-20 23:58  t  179.3594  57.6488  95.107 1816.673
 2016-Mar-21 06:36 Ns  279.4916  -0.3177  95.989 1788.686
 2016-Mar-21 18:14 *r   82.9005  -0.1942  97.967 1783.681
 2016-Mar-22 00:42  t  179.3912  53.9364  98.497 1804.511
 2016-Mar-22 07:07 Cs  274.6840  -0.3465  98.948 1778.635
$$EOE
*******************************************************************************
